FLOCK 2K-40             
1 42865U 17042AS  21285.09861357  .00012751  00000-0  24282-3 0  9993
2 42865  96.8387 132.2016 0008320  15.0446 345.1052 15.48282940238439
FLOCK 2K-39             
1 42866U 17042AT  21284.50646769  .00013357  00000-0  25420-3 0  9995
2 42866  96.8389 131.6480 0008273  18.1703 341.9843 15.48291230238341
FLOCK 2K-37             
1 42867U 17042AU  21285.08480124  .00014792  00000-0  28034-3 0  9999
2 42867  96.8381 132.1489 0008424  16.7176 343.4352 15.48388339238434
FLOCK 2K-32             
1 42870U 17042AX  21284.49771061  .00015824  00000-0  30135-3 0  9992
2 42870  96.8382 131.5726 0007781  15.8721 344.2773 15.48240201238348
FLOCK 2K-29             
1 42871U 17042AY  21285.01088599  .00014171  00000-0  26935-3 0  9996
2 42871  96.8376 132.0815 0008043  11.2728 348.8703 15.48317663238425
FLOCK 2K-30             
1 42872U 17042AZ  21285.13676239  .00013207  00000-0  25125-3 0  9993
2 42872  96.8392 132.3121 0008076  12.3286 347.8162 15.48307822238439
FLOCK 2K-41             
1 42875U 17042BC  21285.11005930  .00015075  00000-0  28684-3 0  9996
2 42875  96.8384 132.3216 0009097   2.9045 357.2258 15.48263212238446
FLOCK 2K-35             
1 42877U 17042BE  21284.74494505  .00013939  00000-0  26589-3 0  9995
2 42877  96.8385 131.9285 0009085   4.8085 355.3252 15.48208544238385
LEMUR-2-ARTFISCHER      
1 42881U 17042BJ  21285.04681583  .00027017  00000-0  50522-3 0  9994
2 42881  96.8316 131.0369 0009350  10.5293 349.6153 15.48648594238354
FLOCK 2K-19             
1 42886U 17042BP  21285.12897217  .00013676  00000-0  26065-3 0  9992
2 42886  96.8384 132.2869 0009368   3.1881 356.9429 15.48234329238446
FLOCK 2K-18             
1 42887U 17042BQ  21285.12534428  .00015155  00000-0  28800-3 0  9998
2 42887  96.8388 132.3025 0009456   1.9065 358.2222 15.48293791238448
FLOCK 2K-15             
1 42890U 17042BT  21284.73417179  .00016132  00000-0  30648-3 0  9990
2 42890  96.8385 132.0619 0009698   1.5475 358.5805 15.48286767238382
FLOCK 2K-12             
1 42893U 17042BW  21284.85551831  .00013056  00000-0  24849-3 0  9998
2 42893  96.8382 132.0992 0009294   3.1448 356.9861 15.48284213238407
FLOCK 2K-10             
1 42895U 17042BY  21285.11755666  .00015961  00000-0  30355-3 0  9998
2 42895  96.8379 132.2257 0009293 359.7527   0.3718 15.48264082238445
VENUS                   
1 42901U 17044B   21285.21517858  .00020740  00000-0  34233-3 0  9998
2 42901  97.1845   1.4143 0040255  97.4241 319.9080 15.51345838223693
COSMOS 2520             
1 42907U 17046A   21284.69388359  .00000127  00000-0  00000-0 0  9998
2 42907   0.0182 151.6581 0000150   7.9562 155.7104  1.00270207 15241
TDRS 13                 
1 42915U 17047A   21284.83379036 -.00000113  00000-0  00000-0 0  9992
2 42915   4.8432 331.6234 0015158 119.1460 218.4925  1.00271372 15200
QZS-3 (MICHIBIKI-3)     
1 42917U 17048A   21285.00499958 -.00000359  00000-0  00000+0 0  9992
2 42917   0.0720 143.9444 0002594  57.6381 308.0801  1.00268960 15225
FORMOSAT-5              
1 42920U 17049A   21284.68195819  .00000025  00000-0  17467-4 0  9998
2 42920  98.2628   2.0678 0009565 297.7436  62.2791 14.50870790218795
ORS-5 SENSORSAT         
1 42921U 17050A   21283.11349207  .00001156  00000-0  37980-4 0  9998
2 42921   0.0476 190.3099 0012504 317.4270 212.3396 14.91494351224818
AMAZONAS 5              
1 42934U 17053A   21285.13382749 -.00000294  00000-0  00000+0 0  9998
2 42934   0.0386 316.4083 0002498 265.9775 145.7319  1.00269792 14999
COSMOS 2522 [GLONASS-M] 
1 42939U 17055A   21284.92454620  .00000044  00000-0  00000-0 0  9992
2 42939  64.2038 250.4083 0009888 248.0993 351.0315  2.13102033 31559
ASIASAT 9               
1 42942U 17057A   21284.93217244 -.00000371  00000-0  00000-0 0  9992
2 42942   0.0063 189.7476 0002131 356.4268 292.2608  1.00270138 14809
YAOGAN 30 A             
1 42945U 17058A   21285.05956576  .00000479  00000-0  51469-4 0  9995
2 42945  34.9996 245.9809 0002906 111.3215 248.7809 14.90013375219928
YAOGAN 30 B             
1 42946U 17058B   21285.08280455  .00000481  00000-0  51652-4 0  9992
2 42946  35.0001 246.1555 0002929 298.4166  61.6246 14.90007031219925
YAOGAN 30 C             
1 42947U 17058C   21285.03726587  .00000487  00000-0  52307-4 0  9993
2 42947  34.9998 246.7075 0005880 161.6077 198.4856 14.90003374219903
INTELSAT 37E (IS-37E)   
1 42950U 17059A   21284.83248208 -.00000151  00000-0  00000-0 0  9992
2 42950   0.0138 137.4403 0002957  61.8999 102.9988  1.00270693 14922
BSAT-4A                 
1 42951U 17059B   21285.00667200 -.00000361  00000-0  00000+0 0  9992
2 42951   0.0943  58.7643 0000811  44.5910  29.7112  1.00272233 14811
VRSS-2                  
1 42954U 17060A   21285.11530586  .00000203  00000-0  36518-4 0  9997
2 42954  97.8815 356.3011 0017514 248.5534 111.3819 14.76220120215942
IRIDIUM 133             
1 42955U 17061A   21284.77261899  .00000074  00000-0  19251-4 0  9999
2 42955  86.4028  19.6031 0001880 102.4016 257.7391 14.34215351209763
IRIDIUM 100             
1 42956U 17061B   21284.76628304  .00000125  00000-0  37698-4 0  9999
2 42956  86.4026  19.5652 0002190  97.4505 262.6940 14.34219047209762
IRIDIUM 122             
1 42957U 17061C   21284.80434388  .00000127  00000-0  38204-4 0  9998
2 42957  86.4026  19.5457 0001853 106.8001 253.3398 14.34216696209779
IRIDIUM 129             
1 42958U 17061D   21284.75994540  .00000129  00000-0  39165-4 0  9993
2 42958  86.4027  19.6128 0001857 102.3260 257.8143 14.34217179209784
IRIDIUM 119             
1 42959U 17061E   21284.79799192  .00000115  00000-0  34180-4 0  9991
2 42959  86.4027  19.5841 0001847  99.8170 260.3234 14.34214945209806
IRIDIUM 107             
1 42960U 17061F   21284.81702896  .00000124  00000-0  37339-4 0  9990
2 42960  86.4028  19.5868 0002135  98.6963 261.4475 14.34217596209811
IRIDIUM 132             
1 42961U 17061G   21284.82335986  .00000125  00000-0  37559-4 0  9999
2 42961  86.4027  19.5736 0002254 103.7251 256.4195 14.34219986209813
IRIDIUM 136             
1 42962U 17061H   21284.78530437  .00000121  00000-0  36007-4 0  9996
2 42962  86.4028  19.5901 0001814  96.6851 263.4552 14.34215825209820
IRIDIUM 139             
1 42963U 17061J   21284.79164738  .00000102  00000-0  29450-4 0  9998
2 42963  86.4029  19.6221 0002067 101.7524 258.3904 14.34215646209830
IRIDIUM 125             
1 42964U 17061K   21284.77896876  .00000121  00000-0  36118-4 0  9992
2 42964  86.4030  19.6574 0002136 100.9749 259.1687 14.34219540209846
QZS-4 (MICHIBIKI-4)     
1 42965U 17062A   21284.75614618 -.00000326  00000-0  00000-0 0  9999
2 42965  40.8132   5.3249 0748391 269.9200 157.0898  1.00273071 14676
SES-11 (ECHOSTAR 105)   
1 42967U 17063A   21285.04256917 -.00000100  00000-0  00000+0 0  9998
2 42967   0.0151 258.1527 0002146 305.7018  87.3820  1.00271463 14663
SENTINEL-5P             
1 42969U 17064A   21284.80270473  .00000009  00000-0  25076-4 0  9999
2 42969  98.7453 223.1910 0000976  83.5419 276.5868 14.19539063207044
KOREASAT 5A             
1 42984U 17067A   21284.85864753 -.00000369  00000-0  00000-0 0  9990
2 42984   0.0440  94.9728 0001651  82.4960 265.4723  1.00271709 14391
COSMOS 2523             
1 42986U 17037E   21284.81309846  .00000574  00000-0  66743-4 0  9999
2 42986  97.6947 340.2981 0079227 153.8735 206.6503 14.86902497214345
SKYSAT-C11              
1 42987U 17068A   21284.86494846  .00006221  00000-0  15466-3 0  9994
2 42987  97.2709  40.0832 0010701 109.1776 251.0630 15.40602549220134
SKYSAT-C10              
1 42988U 17068B   21284.84749899  .00006054  00000-0  15052-3 0  9999
2 42988  97.2749  40.1214 0003524 143.3402 216.8086 15.40662091220159
SKYSAT-C9               
1 42989U 17068C   21285.16874530  .00006727  00000-0  16792-3 0  9996
2 42989  97.2701  39.7579 0001787  59.8027 300.3397 15.40503567220391
SKYSAT-C8               
1 42990U 17068D   21284.89626430  .00006232  00000-0  15504-3 0  9992
2 42990  97.2755  40.5546 0002349 106.1197 254.0308 15.40637177220184
SKYSAT-C7               
1 42991U 17068E   21284.88187609  .00006090  00000-0  15123-3 0  9991
2 42991  97.2760  40.5779 0001010 140.0281 220.1040 15.40700683220184
SKYSAT-C6               
1 42992U 17068F   21285.12996089  .00006426  00000-0  15934-3 0  9993
2 42992  97.2779  41.1441 0001682  50.4823 309.6572 15.40724839220237
FLOCK 3M-4              
1 42997U 17068L   21284.87146215  .00006495  00000-0  26942-3 0  9994
2 42997  97.4474  34.6901 0013435 218.6766 141.3510 15.24133104218980
FLOCK 3M-2              
1 42998U 17068M   21285.02938982  .00010976  00000-0  45280-3 0  9998
2 42998  97.4304  32.6088 0012287 212.6260 147.4219 15.24156076219015
BEIDOU-3 M1             
1 43001U 17069A   21284.92588685  .00000034  00000-0  00000+0 0  9995
2 43001  55.4163 120.0230 0007623 293.7729   7.5902  1.86231841 26767
BEIDOU-3 M2             
1 43002U 17069B   21284.85665234  .00000034  00000-0  00000-0 0  9995
2 43002  55.4159 120.0609 0006389 324.4831 333.7639  1.86231487 26753
MOHAMMED VI-A           
1 43005U 17070A   21285.14946938  .00000161  00000-0  29924-4 0  9997
2 43005  97.9554 356.0421 0001268 102.5416 257.5948 14.77099971211693
FENGYUN 3D              
1 43010U 17072A   21285.12818354 -.00000003  00000-0  19328-4 0  9996
2 43010  98.7972 226.2714 0002171 111.1914 248.9493 14.19779185202549
HEAD-1                  
1 43011U 17072B   21285.16483988  .00000007  00000-0  21817-4 0  9991
2 43011  98.8174 243.1718 0011342  68.3647 291.8737 14.26510142203524
NOAA 20                 
1 43013U 17073A   21285.11758296  .00000022  00000-0  31123-4 0  9994
2 43013  98.7278 222.0180 0001315  73.6751 286.4569 14.19556522201999
BUCCANEER RMM           
1 43014U 17073B   21285.21020942  .00005373  00000-0  42047-3 0  9996
2 43014  97.6851 183.4680 0240934 278.8409  78.5595 14.81325307210400
